[{"OBJECT_NAME":"STARLINK-32674","OBJECT_ID":"2024-251C","EPOCH":"2025-07-28T12:53:14.511264","MEAN_MOTION":15.30219326,"ECCENTRICITY":0.000146,"INCLINATION":53.1584,"RA_OF_ASC_NODE":296.1925,"ARG_OF_PERICENTER":70.8181,"MEAN_ANOMALY":289.2977,"EPHEMERIS_TYPE":0,"CLASSIFICATION_TYPE":"U","NORAD_CAT_ID":62434,"ELEMENT_SET_NO":999,"REV_AT_EPOCH":3363,"BSTAR":0.0010708,"MEAN_MOTION_DOT":0.00031508,"MEAN_MOTION_DDOT":0},{"OBJECT_NAME":"STARLINK-32711","OBJECT_ID":"2024-251D","EPOCH":"2025-07-28T12:09:20.363616","MEAN_MOTION":15.30193851,"ECCENTRICITY":0.0001279,"INCLINATION":53.159,"RA_OF_ASC_NODE":296.7099,"ARG_OF_PERICENTER":61.6799,"MEAN_ANOMALY":298.4331,"EPHEMERIS_TYPE":0,"CLASSIFICATION_TYPE":"U","NORAD_CAT_ID":62435,"ELEMENT_SET_NO":999,"REV_AT_EPOCH":3362,"BSTAR":0.00064629,"MEAN_MOTION_DOT":0.00018827,"MEAN_MOTION_DDOT":0},{"OBJECT_NAME":"STARLINK-32697","OBJECT_ID":"2024-251E","EPOCH":"2025-07-28T13:25:09.565536","MEAN_MOTION":15.30197218,"ECCENTRICITY":0.0001156,"INCLINATION":53.1592,"RA_OF_ASC_NODE":296.3284,"ARG_OF_PERICENTER":92.5955,"MEAN_ANOMALY":267.5178,"EPHEMERIS_TYPE":0,"CLASSIFICATION_TYPE":"U","NORAD_CAT_ID":62436,"ELEMENT_SET_NO":999,"REV_AT_EPOCH":3362,"BSTAR":0.00068956,"MEAN_MOTION_DOT":0.00020117,"MEAN_MOTION_DDOT":0},{"OBJECT_NAME":"STARLINK-32693","OBJECT_ID":"2024-251F","EPOCH":"2025-07-28T12:25:06.969792","MEAN_MOTION":15.3019399,"ECCENTRICITY":0.000122,"INCLINATION":53.1572,"RA_OF_ASC_NODE":293.8662,"ARG_OF_PERICENTER":72.7706,"MEAN_ANOMALY":287.3428,"EPHEMERIS_TYPE":0,"CLASSIFICATION_TYPE":"U","NORAD_CAT_ID":62437,"ELEMENT_SET_NO":999,"REV_AT_EPOCH":3366,"BSTAR":0.001009,"MEAN_MOTION_DOT":0.00029638,"MEAN_MOTION_DDOT":0},{"OBJECT_NAME":"STARLINK-32721","OBJECT_ID":"2024-251G","EPOCH":"2025-07-28T13:14:31.182720","MEAN_MOTION":15.3019481,"ECCENTRICITY":0.00013,"INCLINATION":53.1571,"RA_OF_ASC_NODE":296.2813,"ARG_OF_PERICENTER":78.3615,"MEAN_ANOMALY":281.7532,"EPHEMERIS_TYPE":0,"CLASSIFICATION_TYPE":"U","NORAD_CAT_ID":62438,"ELEMENT_SET_NO":999,"REV_AT_EPOCH":3356,"BSTAR":0.00031493,"MEAN_MOTION_DOT":8.978e-5,"MEAN_MOTION_DDOT":0},{"OBJECT_NAME":"STARLINK-32709","OBJECT_ID":"2024-251H","EPOCH":"2025-07-28T12:38:12.937632","MEAN_MOTION":15.30186712,"ECCENTRICITY":0.0001117,"INCLINATION":53.1579,"RA_OF_ASC_NODE":296.8367,"ARG_OF_PERICENTER":74.1457,"MEAN_ANOMALY":285.9667,"EPHEMERIS_TYPE":0,"CLASSIFICATION_TYPE":"U","NORAD_CAT_ID":62439,"ELEMENT_SET_NO":999,"REV_AT_EPOCH":3362,"BSTAR":0.00090388,"MEAN_MOTION_DOT":0.00026496,"MEAN_MOTION_DDOT":0},{"OBJECT_NAME":"STARLINK-32689","OBJECT_ID":"2024-251J","EPOCH":"2025-07-28T12:47:09.927456","MEAN_MOTION":15.30184678,"ECCENTRICITY":0.00013,"INCLINATION":53.1567,"RA_OF_ASC_NODE":296.16,"ARG_OF_PERICENTER":76.2923,"MEAN_ANOMALY":283.8222,"EPHEMERIS_TYPE":0,"CLASSIFICATION_TYPE":"U","NORAD_CAT_ID":62440,"ELEMENT_SET_NO":999,"REV_AT_EPOCH":3363,"BSTAR":0.00049577,"MEAN_MOTION_DOT":0.00014346,"MEAN_MOTION_DDOT":0},{"OBJECT_NAME":"STARLINK-32724","OBJECT_ID":"2024-251K","EPOCH":"2025-07-28T11:43:30.296640","MEAN_MOTION":15.30197591,"ECCENTRICITY":0.0001023,"INCLINATION":53.1582,"RA_OF_ASC_NODE":296.6022,"ARG_OF_PERICENTER":99.3551,"MEAN_ANOMALY":260.7566,"EPHEMERIS_TYPE":0,"CLASSIFICATION_TYPE":"U","NORAD_CAT_ID":62441,"ELEMENT_SET_NO":999,"REV_AT_EPOCH":3346,"BSTAR":0.00073339,"MEAN_MOTION_DOT":0.00021423,"MEAN_MOTION_DDOT":0},{"OBJECT_NAME":"STARLINK-32291","OBJECT_ID":"2024-251L","EPOCH":"2025-07-28T13:29:42.921312","MEAN_MOTION":15.3019305,"ECCENTRICITY":0.0001132,"INCLINATION":53.1588,"RA_OF_ASC_NODE":296.3457,"ARG_OF_PERICENTER":100.2233,"MEAN_ANOMALY":259.8895,"EPHEMERIS_TYPE":0,"CLASSIFICATION_TYPE":"U","NORAD_CAT_ID":62442,"ELEMENT_SET_NO":999,"REV_AT_EPOCH":3332,"BSTAR":0.00035679,"MEAN_MOTION_DOT":0.0001022,"MEAN_MOTION_DDOT":0},{"OBJECT_NAME":"STARLINK-32736","OBJECT_ID":"2024-251M","EPOCH":"2025-07-28T12:06:18.273024","MEAN_MOTION":15.30181012,"ECCENTRICITY":0.0001595,"INCLINATION":53.1577,"RA_OF_ASC_NODE":296.7009,"ARG_OF_PERICENTER":35.5962,"MEAN_ANOMALY":324.5144,"EPHEMERIS_TYPE":0,"CLASSIFICATION_TYPE":"U","NORAD_CAT_ID":62443,"ELEMENT_SET_NO":999,"REV_AT_EPOCH":3346,"BSTAR":0.00071672,"MEAN_MOTION_DOT":0.00020915,"MEAN_MOTION_DDOT":0},{"OBJECT_NAME":"STARLINK-32737","OBJECT_ID":"2024-251N","EPOCH":"2025-07-28T13:09:11.926944","MEAN_MOTION":15.30193073,"ECCENTRICITY":0.0001166,"INCLINATION":53.1585,"RA_OF_ASC_NODE":294.1262,"ARG_OF_PERICENTER":106.0652,"MEAN_ANOMALY":254.0477,"EPHEMERIS_TYPE":0,"CLASSIFICATION_TYPE":"U","NORAD_CAT_ID":62444,"ELEMENT_SET_NO":999,"REV_AT_EPOCH":3365,"BSTAR":0.00051953,"MEAN_MOTION_DOT":0.00015056,"MEAN_MOTION_DDOT":0},{"OBJECT_NAME":"STARLINK-32683","OBJECT_ID":"2024-251P","EPOCH":"2025-07-28T10:58:04.780128","MEAN_MOTION":15.30185927,"ECCENTRICITY":0.0001128,"INCLINATION":53.1577,"RA_OF_ASC_NODE":297.1081,"ARG_OF_PERICENTER":88.9424,"MEAN_ANOMALY":271.1706,"EPHEMERIS_TYPE":0,"CLASSIFICATION_TYPE":"U","NORAD_CAT_ID":62445,"ELEMENT_SET_NO":999,"REV_AT_EPOCH":3361,"BSTAR":0.00077417,"MEAN_MOTION_DOT":0.00022629,"MEAN_MOTION_DDOT":0},{"OBJECT_NAME":"STARLINK-32726","OBJECT_ID":"2024-251Q","EPOCH":"2025-07-28T13:16:02.274240","MEAN_MOTION":15.30196382,"ECCENTRICITY":0.0001081,"INCLINATION":53.1574,"RA_OF_ASC_NODE":296.2862,"ARG_OF_PERICENTER":115.3458,"MEAN_ANOMALY":244.7654,"EPHEMERIS_TYPE":0,"CLASSIFICATION_TYPE":"U","NORAD_CAT_ID":62446,"ELEMENT_SET_NO":999,"REV_AT_EPOCH":3332,"BSTAR":0.00055683,"MEAN_MOTION_DOT":0.00016167,"MEAN_MOTION_DDOT":0},{"OBJECT_NAME":"STARLINK-32730","OBJECT_ID":"2024-251R","EPOCH":"2025-07-28T13:05:24.040032","MEAN_MOTION":15.30198203,"ECCENTRICITY":9.7e-5,"INCLINATION":53.1566,"RA_OF_ASC_NODE":296.239,"ARG_OF_PERICENTER":114.0917,"MEAN_ANOMALY":246.0185,"EPHEMERIS_TYPE":0,"CLASSIFICATION_TYPE":"U","NORAD_CAT_ID":62447,"ELEMENT_SET_NO":999,"REV_AT_EPOCH":3363,"BSTAR":0.00053994,"MEAN_MOTION_DOT":0.00015665,"MEAN_MOTION_DDOT":0},{"OBJECT_NAME":"STARLINK-32719","OBJECT_ID":"2024-251S","EPOCH":"2025-07-28T13:00:58.383360","MEAN_MOTION":15.30191798,"ECCENTRICITY":0.0001102,"INCLINATION":53.1573,"RA_OF_ASC_NODE":296.7833,"ARG_OF_PERICENTER":77.7885,"MEAN_ANOMALY":282.3239,"EPHEMERIS_TYPE":0,"CLASSIFICATION_TYPE":"U","NORAD_CAT_ID":62448,"ELEMENT_SET_NO":999,"REV_AT_EPOCH":3353,"BSTAR":0.0010258,"MEAN_MOTION_DOT":0.00030138,"MEAN_MOTION_DDOT":0},{"OBJECT_NAME":"STARLINK-32723","OBJECT_ID":"2024-251T","EPOCH":"2025-07-28T11:45:01.586880","MEAN_MOTION":15.3019518,"ECCENTRICITY":0.0001368,"INCLINATION":53.1587,"RA_OF_ASC_NODE":296.6044,"ARG_OF_PERICENTER":136.1966,"MEAN_ANOMALY":223.9144,"EPHEMERIS_TYPE":0,"CLASSIFICATION_TYPE":"U","NORAD_CAT_ID":62449,"ELEMENT_SET_NO":999,"REV_AT_EPOCH":3346,"BSTAR":0.00062612,"MEAN_MOTION_DOT":0.00018227,"MEAN_MOTION_DDOT":0},{"OBJECT_NAME":"STARLINK-32722","OBJECT_ID":"2024-251U","EPOCH":"2025-07-28T13:11:28.765536","MEAN_MOTION":15.30194409,"ECCENTRICITY":0.0001083,"INCLINATION":53.1576,"RA_OF_ASC_NODE":296.2663,"ARG_OF_PERICENTER":103.2646,"MEAN_ANOMALY":256.8475,"EPHEMERIS_TYPE":0,"CLASSIFICATION_TYPE":"U","NORAD_CAT_ID":62450,"ELEMENT_SET_NO":999,"REV_AT_EPOCH":3325,"BSTAR":0.00050579,"MEAN_MOTION_DOT":0.00014648,"MEAN_MOTION_DDOT":0},{"OBJECT_NAME":"STARLINK-32720","OBJECT_ID":"2024-251V","EPOCH":"2025-07-28T12:21:29.708352","MEAN_MOTION":15.30207056,"ECCENTRICITY":0.000119,"INCLINATION":53.1584,"RA_OF_ASC_NODE":296.7629,"ARG_OF_PERICENTER":81.7771,"MEAN_ANOMALY":278.3365,"EPHEMERIS_TYPE":0,"CLASSIFICATION_TYPE":"U","NORAD_CAT_ID":62451,"ELEMENT_SET_NO":999,"REV_AT_EPOCH":3325,"BSTAR":0.00073843,"MEAN_MOTION_DOT":0.00021579,"MEAN_MOTION_DDOT":0},{"OBJECT_NAME":"STARLINK-32656","OBJECT_ID":"2024-251W","EPOCH":"2025-07-28T12:42:46.149984","MEAN_MOTION":15.3018904,"ECCENTRICITY":0.0001315,"INCLINATION":53.1572,"RA_OF_ASC_NODE":296.8513,"ARG_OF_PERICENTER":77.7208,"MEAN_ANOMALY":282.394,"EPHEMERIS_TYPE":0,"CLASSIFICATION_TYPE":"U","NORAD_CAT_ID":62452,"ELEMENT_SET_NO":999,"REV_AT_EPOCH":3346,"BSTAR":0.00102,"MEAN_MOTION_DOT":0.00029962,"MEAN_MOTION_DDOT":0},{"OBJECT_NAME":"STARLINK-32690","OBJECT_ID":"2024-251X","EPOCH":"2025-07-28T11:32:52.103904","MEAN_MOTION":15.30191432,"ECCENTRICITY":8.78e-5,"INCLINATION":53.1556,"RA_OF_ASC_NODE":296.5498,"ARG_OF_PERICENTER":87.7735,"MEAN_ANOMALY":272.3366,"EPHEMERIS_TYPE":0,"CLASSIFICATION_TYPE":"U","NORAD_CAT_ID":62453,"ELEMENT_SET_NO":999,"REV_AT_EPOCH":3324,"BSTAR":0.00049961,"MEAN_MOTION_DOT":0.00014463,"MEAN_MOTION_DDOT":0},{"OBJECT_NAME":"STARLINK-11518 [DTC]","OBJECT_ID":"2024-254A","EPOCH":"2025-07-28T03:46:08.040000","MEAN_MOTION":15.70904333,"ECCENTRICITY":0.0002387,"INCLINATION":43.0019,"RA_OF_ASC_NODE":136.791,"ARG_OF_PERICENTER":271.1698,"MEAN_ANOMALY":88.8896,"EPHEMERIS_TYPE":0,"CLASSIFICATION_TYPE":"U","NORAD_CAT_ID":62462,"ELEMENT_SET_NO":999,"REV_AT_EPOCH":3409,"BSTAR":0.001645,"MEAN_MOTION_DOT":0.00216817,"MEAN_MOTION_DDOT":0},{"OBJECT_NAME":"STARLINK-11455 [DTC]","OBJECT_ID":"2024-254B","EPOCH":"2025-07-28T03:53:46.633920","MEAN_MOTION":15.70910626,"ECCENTRICITY":0.0002812,"INCLINATION":43.0024,"RA_OF_ASC_NODE":136.8327,"ARG_OF_PERICENTER":275.3954,"MEAN_ANOMALY":84.6593,"EPHEMERIS_TYPE":0,"CLASSIFICATION_TYPE":"U","NORAD_CAT_ID":62463,"ELEMENT_SET_NO":999,"REV_AT_EPOCH":3408,"BSTAR":0.0015641,"MEAN_MOTION_DOT":0.00205921,"MEAN_MOTION_DDOT":0},{"OBJECT_NAME":"STARLINK-11459 [DTC]","OBJECT_ID":"2024-254C","EPOCH":"2025-07-28T04:16:32.007936","MEAN_MOTION":15.70889645,"ECCENTRICITY":0.000224,"INCLINATION":43.0023,"RA_OF_ASC_NODE":136.0651,"ARG_OF_PERICENTER":286.1168,"MEAN_ANOMALY":73.9453,"EPHEMERIS_TYPE":0,"CLASSIFICATION_TYPE":"U","NORAD_CAT_ID":62464,"ELEMENT_SET_NO":999,"REV_AT_EPOCH":3408,"BSTAR":0.0014455,"MEAN_MOTION_DOT":0.00189724,"MEAN_MOTION_DDOT":0}]
